BEIJING 1               
1 28890U 05043A   23109.56233817  .00000819  00000+0  17358-3 0  9993
2 28890  98.1478 231.9782 0013857 297.4879  62.4907 14.61752110931850
HJ-1A                   
1 33320U 08041A   23109.42216935  .00001478  00000+0  20921-3 0  9997
2 33320  97.6499 132.6834 0019827 319.9249  40.0505 14.78350458787582
HJ-1B                   
1 33321U 08041B   23109.42509146  .00002053  00000+0  28476-3 0  9990
2 33321  97.6625 136.8693 0033125 337.2271  22.7483 14.78611531787582
YAOGAN 4                
1 33446U 08061A   23109.39330655  .00002469  00000+0  34762-3 0  9999
2 33446  97.8488  45.8274 0014760 219.4243 140.5895 14.78127604774773
DEIMOS-1                
1 35681U 09041A   23109.38326124  .00001077  00000+0  17712-3 0  9996
2 35681  97.6886 309.3118 0001312  24.3601 335.7678 14.72458386736785
UK-DMC 2                
1 35683U 09041C   23109.39122155  .00001655  00000+0  27092-3 0  9991
2 35683  97.7248 271.4691 0001463  69.9601 290.1785 14.72025649736502
RISAT 1                 
1 38248U 12017A   23109.50159668  .00010056  00000+0  53560-3 0  9994
2 38248  97.5445 122.9150 0001798 291.0147  69.0893 15.15408779605104
DMC3-FM1                
1 40715U 15032A   23109.32509604  .00001327  00000+0  17105-3 0  9991
2 40715  97.8081 354.5070 0004646 235.4662 124.6103 14.82651155418608
DMC3-FM2                
1 40716U 15032B   23109.34737419  .00001314  00000+0  16947-3 0  9990
2 40716  97.8127 355.3368 0006411 241.5122 118.5440 14.82654841418612
DMC3-FM3                
1 40717U 15032C   23109.36975554  .00001294  00000+0  16708-3 0  9999
2 40717  97.8164 356.4070 0007993 238.9389 121.1034 14.82629966418616
